[{"OBJECT_NAME":"STARLINK-2015","OBJECT_ID":"2021-012U","EPOCH":"2026-03-09T22:09:23.404320","MEAN_MOTION":15.30181873,"ECCENTRICITY":0.00011937,"INCLINATION":53.1603,"RA_OF_ASC_NODE":331.3215,"ARG_OF_PERICENTER":95.8181,"MEAN_ANOMALY":264.2956,"EPHEMERIS_TYPE":0,"CLASSIFICATION_TYPE":"U","NORAD_CAT_ID":47638,"ELEMENT_SET_NO":999,"REV_AT_EPOCH":28139,"BSTAR":-4.4390938e-5,"MEAN_MOTION_DOT":-1.673e-5,"MEAN_MOTION_DDOT":0},{"OBJECT_NAME":"SHIYAN-21 (SY-21)","OBJECT_ID":"2022-172A","EPOCH":"2026-03-09T23:40:42.191616","MEAN_MOTION":15.28197132,"ECCENTRICITY":0.00206059,"INCLINATION":35.9768,"RA_OF_ASC_NODE":332.6944,"ARG_OF_PERICENTER":79.3933,"MEAN_ANOMALY":280.9121,"EPHEMERIS_TYPE":0,"CLASSIFICATION_TYPE":"U","NORAD_CAT_ID":54752,"ELEMENT_SET_NO":999,"REV_AT_EPOCH":18050,"BSTAR":0.00041186164,"MEAN_MOTION_DOT":0.00011616,"MEAN_MOTION_DDOT":0}]
